NORAD_CAT_ID,OBJECT_NAME,OBJECT_TYPE,EPOCH,MEAN_MOTION,ECCENTRICITY,INCLINATION,RA_OF_ASC_NODE,ARG_OF_PERICENTER,MEAN_ANOMALY,BSTAR,MEAN_MOTION_DOT,MEAN_MOTION_DDOT,TLE_LINE0,TLE_LINE1,TLE_LINE2,SEMIMAJOR_AXIS,PERIOD,APOGEE,PERIGEE,DECAYED
54092.0,STARLINK-5190,PAYLOAD,2022-11-02 22:00:00,15.73183887,0.00019,53.2164,82.0256,46.9121,337.8567,0.00064986,0.00091522,0.0,0 STARLINK-5190,1 54092U 22136AT  22306.91667824  .00091522  00000-0  64986-3 0  9995,2 54092  53.2164  82.0256 0001900  46.9121 337.8567 15.73183887  1303,6727.941,91.534,351.084,348.528,0.0
54092.0,STARLINK-5190,PAYLOAD,2022-11-03 04:00:00,15.7315459,0.0001188,53.2176,80.7835,48.5714,312.9152,0.00050552,0.00070787,0.0,0 STARLINK-5190,1 54092U 22136AT  22307.16667824  .00070787  00000-0  50552-3 0  9997,2 54092  53.2176  80.7835 0001188  48.5714 312.9152 15.73154590  2638,6728.025,91.536,350.689,349.09,0.0
54092.0,STARLINK-5190,PAYLOAD,2022-11-03 12:00:00,15.73291975,0.0001641999999999,53.2165,79.1378,43.7704,46.6794,-0.00036538,-0.00051788,0.0,0 STARLINK-5190,1 54092U 22136AT  22307.50001157 -.00051788  00000-0 -36538-3 0  9996,2 54092  53.2165  79.1378 0001642  43.7704  46.6794 15.73291975  2688,6727.6330000000025,91.528,350.603,348.39300000000014,0.0
54092.0,STARLINK-5190,PAYLOAD,2022-11-03 14:00:01,15.73293327,0.0001696999999999,53.2164,78.726,40.9963,161.7084,-0.00050914,-0.00071756,0.0,0 STARLINK-5190,1 54092U 22136AT  22307.58334491 -.00071756  00000-0 -50914-3 0  9995,2 54092  53.2164  78.7260 0001697  40.9963 161.7084 15.73293327  1300,6727.629,91.528,350.636,348.352,0.0
54092.0,STARLINK-5190,PAYLOAD,2022-11-03 20:00:01,15.73247536,0.0001754,53.2161,77.4894,34.2943,145.2496,0.00018933,0.00026088,0.0,0 STARLINK-5190,1 54092U 22136AT  22307.83335648  .00026088  00000-0  18933-3 0  9999,2 54092  53.2161  77.4894 0001754  34.2943 145.2496 15.73247536  2737,6727.76,91.53,350.805,348.445,0.0
54092.0,STARLINK-5190,PAYLOAD,2022-11-03 22:00:00,15.73273385,0.0001728,53.2159,77.0765,32.4927,259.2281,-0.00020953,-0.00030016,0.0,0 STARLINK-5190,1 54092U 22136AT  22307.91667824 -.00030016  00000-0 -20953-3 0  9995,2 54092  53.2159  77.0765 0001728  32.4927 259.2281 15.73273385  1301,6727.686,91.529,350.714,348.38800000000015,0.0
54092.0,STARLINK-5190,PAYLOAD,2022-11-04 04:00:01,15.73244388,0.0001544,53.2163,75.8376,32.8082,235.7415,-0.00015025,-0.00021693,0.0,0 STARLINK-5190,1 54092U 22136AT  22308.16668981 -.00021693  00000-0 -15025-3 0  9993,2 54092  53.2163  75.8376 0001544  32.8082 235.7415 15.73244388  2784,6727.769,91.531,350.672,348.595,0.0
54092.0,STARLINK-5190,PAYLOAD,2022-11-04 14:00:01,15.7319823,0.0001727,53.2165,73.777,27.9672,81.7371,0.00042155,0.00058954,0.0,0 STARLINK-5190,1 54092U 22136AT  22308.58334491  .00058954  00000-0  42155-3 0  9997,2 54092  53.2165  73.7770 0001727  27.9672  81.7371 15.73198230  1305,6727.9,91.533,350.927,348.603,0.0
54092.0,STARLINK-5190,PAYLOAD,2022-11-04 20:00:01,15.73201359,0.0001902,53.2165,72.5404,27.3125,59.0313,1.4744e-05,1.449e-05,0.0,0 STARLINK-5190,1 54092U 22136AT  22308.83334491  .00001449  00000-0  14744-4 0  9996,2 54092  53.2165  72.5404 0001902  27.3125  59.0313 15.73201359  2894,6727.891,91.533,351.036,348.477,0.0
54092.0,STARLINK-5190,PAYLOAD,2022-11-04 22:00:01,15.73234796,0.0001853,53.2164,72.1275,26.8908,171.7433,-0.00058025,-0.00081398,0.0,0 STARLINK-5190,1 54092U 22136AT  22308.91668981 -.00081398  00000-0 -58025-3 0  9991,2 54092  53.2164  72.1275 0001853  26.8908 171.7433 15.73234796  1304,6727.795999999999,91.531,350.908,348.414,0.0
54092.0,STARLINK-5190,PAYLOAD,2022-11-05 04:00:00,15.73172349,0.000171,53.2166,70.8888,26.8771,148.3994,-0.00043945,-0.00061773,0.0,0 STARLINK-5190,1 54092U 22136AT  22309.16667824 -.00061773  00000-0 -43945-3 0  9994,2 54092  53.2166  70.8888 0001710  26.8771 148.3994 15.73172349  2949,6727.974,91.535,350.98900000000015,348.689,0.0
54092.0,STARLINK-5190,PAYLOAD,2022-11-05 14:00:01,15.73114334,0.0001923,53.2165,68.8286,24.6071,351.81,0.00043182,0.00060198,0.0,0 STARLINK-5190,1 54092U 22136AT  22309.58335648  .00060198  00000-0  43182-3 0  9997,2 54092  53.2165  68.8286 0001923  24.6071 351.8100 15.73114334  1301,6728.139,91.538,351.298,348.711,0.0
54092.0,STARLINK-5190,PAYLOAD,2022-11-05 20:00:01,15.73153678,0.0002107,53.2161,67.5923,22.3176,330.663,0.00047599,0.00066583,0.0,0 STARLINK-5190,1 54092U 22136AT  22309.83334491  .00066583  00000-0  47599-3 0  9990,2 54092  53.2161  67.5923 0002107  22.3176 330.6630 15.73153678  3058,6728.026999999999,91.536,351.31,348.475,0.0
54092.0,STARLINK-5190,PAYLOAD,2022-11-05 22:00:01,15.732076500000002,0.0002079,53.2161,67.1792,25.0063,80.2508,-0.00015861,-0.0002283,0.0,0 STARLINK-5190,1 54092U 22136AT  22309.91668981 -.00022830  00000-0 -15861-3 0  9999,2 54092  53.2161  67.1792 0002079  25.0063  80.2508 15.73207650  1309,6727.873000000001,91.533,351.13699999999994,348.34,0.0
54092.0,STARLINK-5190,PAYLOAD,2022-11-06 04:00:00,15.73138157,0.0001898,53.2164,65.9407,29.0451,52.8543,0.00075398,0.00106264,0.0,0 STARLINK-5190,1 54092U 22136AT  22310.16667824  .00106264  00000-0  75398-3 0  9996,2 54092  53.2164  65.9407 0001898  29.0451  52.8543 15.73138157  3103,6728.071,91.537,351.213,348.66,0.0
54092.0,STARLINK-5190,PAYLOAD,2022-11-06 12:00:00,15.73241471,0.0002086,53.2168,64.2924,29.3094,141.4717,-0.00046447,-0.00065423,0.0,0 STARLINK-5190,1 54092U 22136AT  22310.50001157 -.00065423  00000-0 -46447-3 0  9991,2 54092  53.2168  64.2924 0002086  29.3094 141.4717 15.73241471  3156,6727.776999999999,91.531,351.045,348.23900000000015,0.0
54092.0,STARLINK-5190,PAYLOAD,2022-11-06 14:00:01,15.73230823,0.0002173,53.2167,63.8806,27.6562,255.3662,-0.00041756,-0.00058898,0.0,0 STARLINK-5190,1 54092U 22136AT  22310.58334491 -.00058898  00000-0 -41756-3 0  9995,2 54092  53.2167  63.8806 0002173  27.6562 255.3662 15.73230823  1305,6727.807,91.531,351.134,348.21,0.0
54092.0,STARLINK-5190,PAYLOAD,2022-11-07 04:00:00,15.73155387,0.0002119,53.2169,60.9924,26.2226,322.4407,0.00016128,0.00022031,0.0,0 STARLINK-5190,1 54092U 22136AT  22311.16667824  .00022031  00000-0  16128-3 0  9992,2 54092  53.2169  60.9924 0002119  26.2226 322.4407 15.73155387  3269,6728.022,91.536,351.31300000000016,348.462,0.0
54092.0,STARLINK-5190,PAYLOAD,2022-11-07 18:00:00,15.73195511,0.0002468,53.2166,58.1084,21.8213,32.4165,0.00066154,0.00093248,0.0,0 STARLINK-5190,1 54092U 22136AT  22311.75001157  .00093248  00000-0  66154-3 0  9990,2 54092  53.2166  58.1084 0002468  21.8213  32.4165 15.73195511  3358,6727.908,91.533,351.43300000000005,348.11300000000006,0.0
54092.0,STARLINK-5190,PAYLOAD,2022-11-07 22:00:00,15.73282759,0.0002366,53.2164,57.2827,20.4701,258.2282,-0.00057317,-0.00080592,0.0,0 STARLINK-5190,1 54092U 22136AT  22311.91667824 -.00080592  00000-0 -57317-3 0  9998,2 54092  53.2164  57.2827 0002366  20.4701 258.2282 15.73282759  1307,6727.659000000002,91.528,351.116,347.932,0.0
54092.0,STARLINK-5190,PAYLOAD,2022-11-08 04:00:00,15.73117279,0.0002452,53.2167,56.0441,9.0379,246.45,0.00025282,0.00034886,0.0,0 STARLINK-5190,1 54092U 22136AT  22312.16667824  .00034886  00000-0  25282-3 0  9995,2 54092  53.2167  56.0441 0002452   9.0379 246.4500 15.73117279  3419,6728.130999999999,91.538,351.646,348.346,0.0
54092.0,STARLINK-5190,PAYLOAD,2022-11-08 14:00:01,15.73180598,0.0002741,53.217,53.9845,10.5765,85.964,-0.00025376,-0.00036061,0.0,0 STARLINK-5190,1 54092U 22136AT  22312.58334491 -.00036061  00000-0 -25376-3 0  9995,2 54092  53.2170  53.9845 0002741  10.5765  85.9640 15.73180598  1305,6727.95,91.534,351.66,347.971,0.0
54092.0,STARLINK-5190,PAYLOAD,2022-11-08 22:00:00,15.73207665,0.0002778,53.2171,52.3346,6.1616,179.2674,-0.0011658,-0.00161234,0.0,0 STARLINK-5190,1 54092U 22136AT  22312.91667824 -.00161234  00000-0 -11658-2 0  9999,2 54092  53.2171  52.3346 0002778   6.1616 179.2674 15.73207665  1300,6727.873000000001,91.533,351.607,347.869,0.0
54092.0,STARLINK-5190,PAYLOAD,2022-11-09 04:00:00,15.731446300000002,0.0002662,53.217,51.0963,6.1797,155.9169,-0.0015261,-0.00209122,0.0,0 STARLINK-5190,1 54092U 22136AT  22313.16667824 -.00209122  00000-0 -15261-2 0  9990,2 54092  53.2170  51.0963 0002662   6.1797 155.9169 15.73144630  3575,6728.053000000001,91.536,351.709,348.12699999999984,0.0
54092.0,STARLINK-5190,PAYLOAD,2022-11-09 12:00:00,15.7286482,0.0003012,53.2169,49.4489,8.828,242.0674,0.0018809,0.00268102,0.0,0 STARLINK-5190,1 54092U 22136AT  22313.50001157  .00268102  00000-0  18809-2 0  9991,2 54092  53.2169  49.4489 0003012   8.8280 242.0674 15.72864820  3627,6728.851,91.553,352.74300000000005,348.689,0.0
54092.0,STARLINK-5190,PAYLOAD,2022-11-09 14:00:01,15.72859827,0.0003002,53.2169,49.0371,9.8027,353.2435,0.0027274,0.0039494,0.0,0 STARLINK-5190,1 54092U 22136AT  22313.58334491  .00394940  00000-0  27274-2 0  9995,2 54092  53.2169  49.0371 0003002   9.8027 353.2435 15.72859827  1306,6728.865,91.553,352.75,348.71,0.0
54092.0,STARLINK-5190,PAYLOAD,2022-11-09 20:00:01,15.73081059,0.0003114,53.2163,47.8003,10.6465,328.8590000000001,0.0024648,0.00358668,0.0,0 STARLINK-5190,1 54092U 22136AT  22313.83334491  .00358668  00000-0  24648-2 0  9992,2 54092  53.2163  47.8003 0003114  10.6465 328.8590 15.73081059  3686,6728.234,91.54,352.194,348.004,0.0
54092.0,STARLINK-5190,PAYLOAD,2022-11-09 22:00:01,15.73178364,0.000299,53.2164,47.3873,12.2285,79.5381,0.0017529,0.00252716,0.0,0 STARLINK-5190,1 54092U 22136AT  22313.91668981  .00252716  00000-0  17529-2 0  9992,2 54092  53.2164  47.3873 0002990  12.2285  79.5381 15.73178364  1307,6727.956999999999,91.534,351.834,347.81,0.0
54092.0,STARLINK-5190,PAYLOAD,2022-11-10 04:00:00,15.73337175,0.0002836,53.2165,46.1491,11.6837,56.7383,-2.3552e-06,-9.56e-06,0.0,0 STARLINK-5190,1 54092U 22136AT  22314.16667824 -.00000956  00000-0 -23552-5 0  9990,2 54092  53.2165  46.1491 0002836  11.6837  56.7383 15.73337175  3731,6727.504,91.525,351.277,347.461,0.0
